{
  "norad_id": 57998,
  "name": "STARLINK-30531",
  "history": [
    {
      "epoch": "2026-03-28T20:00:01.999872",
      "apogee_km": 484.1474211069162,
      "perigee_km": 482.0185217741773,
      "latitude_deg": 19.85196474421335,
      "longitude_deg": 59.802222080063075,
      "semi_major_axis_km": 6861.219971440547,
      "eccentricity": 0.00015514,
      "inclination_deg": 43.0033,
      "raan_deg": 318.8261,
      "arg_perigee_deg": 267.6512,
      "mean_anomaly_deg": 160.6075,
      "mean_motion_rev_day": 15.27568687
    },
    {
      "epoch": "2026-03-29T00:24:39.991392",
      "apogee_km": 484.45232270209453,
      "perigee_km": 481.65981712263965,
      "latitude_deg": -11.827181232344504,
      "longitude_deg": 77.44443488004617,
      "semi_major_axis_km": 6861.193069912367,
      "eccentricity": 0.0002035,
      "inclination_deg": 43.0038,
      "raan_deg": 317.7866,
      "arg_perigee_deg": 258.651,
      "mean_anomaly_deg": 101.4113,
      "mean_motion_rev_day": 15.27577671
    }
  ]
}